NORAD_CAT_ID,OBJECT_NAME,OBJECT_TYPE,EPOCH,MEAN_MOTION,ECCENTRICITY,INCLINATION,RA_OF_ASC_NODE,ARG_OF_PERICENTER,MEAN_ANOMALY,BSTAR,MEAN_MOTION_DOT,MEAN_MOTION_DDOT,TLE_LINE0,TLE_LINE1,TLE_LINE2,SEMIMAJOR_AXIS,PERIOD,APOGEE,PERIGEE,DECAYED
54810.0,STARLINK-5408,PAYLOAD,2023-10-17 11:01:26,15.08829994,0.0001446,53.219,348.4665,99.8103,260.3052,0.00022728,3.33e-05,0.0,0 STARLINK-5408,1 54810U 22175BE  23290.45933248  .00003330  00000-0  22728-3 0  9992,2 54810  53.2190 348.4665 0001446  99.8103 260.3052 15.08829994 46060,6917.911,95.438,540.776,538.776,0.0
54810.0,STARLINK-5408,PAYLOAD,2023-10-17 20:33:45,15.08833005,0.000129,53.2184,346.6794,94.5307,265.5833,0.00010696,1.414e-05,0.0,0 STARLINK-5408,1 54810U 22175BE  23290.85677611  .00001414  00000-0  10696-3 0  9997,2 54810  53.2184 346.6794 0001290  94.5307 265.5833 15.08833005 48289,6917.902,95.438,540.659,538.874,0.0
54810.0,STARLINK-5408,PAYLOAD,2023-10-18 10:52:13,15.08843375,0.0001263,53.2191,344.0035,88.673,271.4407,-5.935e-05,-1.232e-05,0.0,0 STARLINK-5408,1 54810U 22175BE  23291.45293661 -.00001232  00000-0 -59350-4 0  9994,2 54810  53.2191 344.0035 0001263  88.6730 271.4407 15.08843375 48375,6917.87,95.437,540.609,538.861,0.0
54810.0,STARLINK-5408,PAYLOAD,2023-10-19 02:46:04,15.08850147,0.0001616,53.2193,341.0337,108.6803,251.4365,-6.8925e-05,-1.385e-05,0.0,0 STARLINK-5408,1 54810U 22175BE  23292.11533324 -.00001385  00000-0 -68925-4 0  9998,2 54810  53.2193 341.0337 0001616 108.6803 251.4365 15.08850147 46313,6917.849,95.437,540.832,538.596,0.0
54810.0,STARLINK-5408,PAYLOAD,2023-10-19 10:43:00,15.08845946,0.0001343,53.2189,339.5443,93.7935,266.321,4.6844e-05,4.58e-06,0.0,0 STARLINK-5408,1 54810U 22175BE  23292.44653023  .00000458  00000-0  46844-4 0  9997,2 54810  53.2189 339.5443 0001343  93.7935 266.3210 15.08845946 48525,6917.862,95.437,540.656,538.798,0.0
54810.0,STARLINK-5408,PAYLOAD,2023-10-19 20:15:19,15.08839505,0.0001359,53.2187,337.7603,90.3669,269.7479,-1.9834e-06,-3.19e-06,0.0,0 STARLINK-5408,1 54810U 22175BE  23292.84397506 -.00000319  00000-0 -19834-5 0  9990,2 54810  53.2187 337.7603 0001359  90.3669 269.7479 15.08839505 46420,6917.882,95.438,540.687,538.807,0.0
54810.0,STARLINK-5408,PAYLOAD,2023-10-20 12:09:11,15.08838736,0.0001689,53.2186,334.7876,93.5196,266.5989,-1.2634e-05,-4.89e-06,0.0,0 STARLINK-5408,1 54810U 22175BE  23293.50638008 -.00000489  00000-0 -12634-4 0  9997,2 54810  53.2186 334.7876 0001689  93.5196 266.5989 15.08838736 48680,6917.884,95.438,540.918,538.581,0.0
54810.0,STARLINK-5408,PAYLOAD,2023-10-21 02:27:40,15.08834799,0.0001739,53.2188,332.1092,90.8195,269.2997,-8.2287e-05,-1.597e-05,0.0,0 STARLINK-5408,1 54810U 22175BE  23294.10254752 -.00001597  00000-0 -82287-4 0  9996,2 54810  53.2188 332.1092 0001739  90.8195 269.2997 15.08834799 46614,6917.896,95.438,540.964,538.558,0.0
54810.0,STARLINK-5408,PAYLOAD,2023-10-21 10:24:35,15.08842136,0.0001809,53.2183,330.6234,89.4411,270.6788,9.8664e-06,-1.31e-06,0.0,0 STARLINK-5408,1 54810U 22175BE  23294.43374048 -.00000131  00000-0  98664-5 0  9992,2 54810  53.2183 330.6234 0001809  89.4411 270.6788 15.08842136 46666,6917.874,95.437,540.99,538.487,0.0
54810.0,STARLINK-5408,PAYLOAD,2023-10-21 19:56:53,15.08846731,0.0001749,53.2181,328.8394,89.2586,270.8607,5.8082e-06,-1.96e-06,0.0,0 STARLINK-5408,1 54810U 22175BE  23294.83117615 -.00000196  00000-0  58082-5 0  9992,2 54810  53.2181 328.8394 0001749  89.2586 270.8607 15.08846731 48887,6917.86,95.437,540.935,538.515,0.0
54810.0,STARLINK-5408,PAYLOAD,2023-10-22 08:39:58,15.08844817,0.0001914,53.2179,326.461,91.5862,268.535,0.00014696,2.052e-05,0.0,0 STARLINK-5408,1 54810U 22175BE  23295.36109256  .00002052  00000-0  14696-3 0  9996,2 54810  53.2179 326.4610 0001914  91.5862 268.5350 15.08844817 48967,6917.866,95.437,541.055,538.407,0.0
54810.0,STARLINK-5408,PAYLOAD,2023-10-22 19:47:41,15.08835647,0.0002014,53.219,324.3766,100.6961,259.4258,-1.5832e-05,-5.4e-06,0.0,0 STARLINK-5408,1 54810U 22175BE  23295.82478348 -.00000540  00000-0 -15832-4 0  9994,2 54810  53.2190 324.3766 0002014 100.6961 259.4258 15.08835647 46878,6917.894,95.438,541.152,538.365,0.0
54810.0,STARLINK-5408,PAYLOAD,2023-10-23 08:30:46,15.08836362,0.000168,53.2186,321.9982,95.0708,265.0476,-8.2566e-05,-1.602e-05,0.0,0 STARLINK-5408,1 54810U 22175BE  23296.35470751 -.00001602  00000-0 -82566-4 0  9991,2 54810  53.2186 321.9982 0001680  95.0708 265.0476 15.08836362 49110,6917.892,95.438,540.919,538.594,0.0
54810.0,STARLINK-5408,PAYLOAD,2023-10-24 11:32:19,15.08849129,0.0001389,53.2178,316.9428,95.8815,264.2335,9.8966e-06,-1.3e-06,0.0,0 STARLINK-5408,1 54810U 22175BE  23297.48077568 -.00000130  00000-0  98966-5 0  9991,2 54810  53.2178 316.9428 0001389  95.8815 264.2335 15.08849129 47122,6917.852,95.437,540.678,538.757,0.0
54810.0,STARLINK-5408,PAYLOAD,2023-10-25 08:12:20,15.0883645,0.0001665,53.2183,313.0784,94.7588,265.3594,4.1139e-05,3.67e-06,0.0,0 STARLINK-5408,1 54810U 22175BE  23298.34190439  .00000367  00000-0  41139-4 0  9990,2 54810  53.2183 313.0784 0001665  94.7588 265.3594 15.08836450 47259,6917.891,95.438,540.908,538.604,0.0
54810.0,STARLINK-5408,PAYLOAD,2023-10-26 11:13:53,15.08843714,0.0001602,53.2178,308.0235,96.4562,263.6612,2.341e-05,8.5e-07,0.0,0 STARLINK-5408,1 54810U 22175BE  23299.46798166  .00000085  00000-0  23410-4 0  9994,2 54810  53.2178 308.0235 0001602  96.4562 263.6612 15.08843714 47422,6917.869,95.437,540.842,538.626,0.0
54810.0,STARLINK-5408,PAYLOAD,2023-10-26 17:35:26,15.08844222,0.0001498,53.2176,306.8339,89.2964,270.82,-2.5579e-05,-6.95e-06,0.0,0 STARLINK-5408,1 54810U 22175BE  23299.73294255 -.00000695  00000-0 -25579-4 0  9991,2 54810  53.2176 306.8339 0001498  89.2964 270.8200 15.08844222 49622,6917.867,95.437,540.769,538.696,0.0
54810.0,STARLINK-5408,PAYLOAD,2023-10-27 04:43:08,15.08834705,0.0001467,53.2177,304.7527,83.7657,276.3502,4.689e-05,4.58e-06,0.0,0 STARLINK-5408,1 54810U 22175BE  23300.19662680  .00000458  00000-0  46890-4 0  9999,2 54810  53.2177 304.7527 0001467  83.7657 276.3502 15.08834705 47532,6917.897,95.438,540.776,538.747,0.0
54810.0,STARLINK-5408,PAYLOAD,2023-10-27 09:29:17,15.08844411,0.0001843,53.2186,303.8595,88.7627,271.3577,5.2822e-05,5.53e-06,0.0,0 STARLINK-5408,1 54810U 22175BE  23300.39534094  .00000553  00000-0  52822-4 0  9996,2 54810  53.2186 303.8595 0001843  88.7627 271.3577 15.08844411 47562,6917.867,95.437,541.007,538.457,0.0
54810.0,STARLINK-5408,PAYLOAD,2023-10-27 17:26:13,15.08834423,0.0001752,53.218,302.3726,100.2003,259.9186,5.1758e-06,-2.06e-06,0.0,0 STARLINK-5408,1 54810U 22175BE  23300.72654796 -.00000206  00000-0  51758-5 0  9999,2 54810  53.2180 302.3726 0001752 100.2003 259.9186 15.08834423 47619,6917.897,95.438,540.974,538.55,0.0
54810.0,STARLINK-5408,PAYLOAD,2023-10-28 09:20:04,15.08840688,0.0001569,53.2181,299.3994,93.0076,267.1095,-2.2278e-05,-6.43e-06,0.0,0 STARLINK-5408,1 54810U 22175BE  23301.38894657 -.00000643  00000-0 -22278-4 0  9994,2 54810  53.2181 299.3994 0001569  93.0076 267.1095 15.08840688 49877,6917.878,95.438,540.829,538.658,0.0
54810.0,STARLINK-5408,PAYLOAD,2023-10-28 17:17:00,15.08836389,0.0001596,53.2175,297.9119,89.768,270.3496,-3.5019e-05,-8.45e-06,0.0,0 STARLINK-5408,1 54810U 22175BE  23301.72014996 -.00000845  00000-0 -35019-4 0  9993,2 54810  53.2175 297.9119 0001596  89.7680 270.3496 15.08836389 49926,6917.891,95.438,540.861,538.652,0.0
54810.0,STARLINK-5408,PAYLOAD,2023-10-29 04:24:42,15.0883691,0.0001414,53.2168,295.8289,90.8017,269.3137,3.6983e-05,3.01e-06,0.0,0 STARLINK-5408,1 54810U 22175BE  23302.18382747  .00000301  00000-0  36983-4 0  9992,2 54810  53.2168 295.8289 0001414  90.8017 269.3137 15.08836910 47837,6917.89,95.438,540.733,538.777,0.0
54810.0,STARLINK-5408,PAYLOAD,2023-10-29 06:00:05,15.0883784,0.0001339,53.2173,295.5308,94.3593,265.7552,4.4643e-05,4.23e-06,0.0,0 STARLINK-5408,1 54810U 22175BE  23302.25006619  .00000423  00000-0  44643-4 0  9998,2 54810  53.2173 295.5308 0001339  94.3593 265.7552 15.08837840 50003,6917.887,95.438,540.678,538.826,0.0
54810.0,STARLINK-5408,PAYLOAD,2023-10-29 17:07:47,15.08840901,0.0001354,53.2162,293.4512,101.6198,258.4946,-3.4082e-05,-8.3e-06,0.0,0 STARLINK-5408,1 54810U 22175BE  23302.71374689 -.00000830  00000-0 -34082-4 0  9994,2 54810  53.2162 293.4512 0001354 101.6198 258.4946 15.08840901 50070,6917.878,95.437,540.679,538.806,0.0
54810.0,STARLINK-5408,PAYLOAD,2023-10-30 09:01:39,15.08841293,0.0001614,53.217,290.476,107.0716,253.0453,2.7395e-05,1.48e-06,0.0,0 STARLINK-5408,1 54810U 22175BE  23303.37614670  .00000148  00000-0  27395-4 0  9993,2 54810  53.2170 290.4760 0001614 107.0716 253.0453 15.08841293 48016,6917.876,95.437,540.858,538.625,0.0
54810.0,STARLINK-5408,PAYLOAD,2023-10-31 04:06:17,15.0883557,0.0001608,53.2176,286.9091,95.3288,264.7888,9.996e-06,-1.29e-06,0.0,0 STARLINK-5408,1 54810U 22175BE  23304.17103338 -.00000129  00000-0  99960-5 0  9994,2 54810  53.2176 286.9091 0001608  95.3288 264.7888 15.08835570 48130,6917.894,95.438,540.871,538.647,0.0
54810.0,STARLINK-5408,PAYLOAD,2023-10-31 08:52:26,15.08842095,0.0001751,53.2176,286.0154,103.0446,257.0742,-1.681e-05,-5.56e-06,0.0,0 STARLINK-5408,1 54810U 22175BE  23304.36975024 -.00000556  00000-0 -16810-4 0  9991,2 54810  53.2176 286.0154 0001751 103.0446 257.0742 15.08842095 50321,6917.874,95.437,540.95,538.528,0.0
54810.0,STARLINK-5408,PAYLOAD,2023-11-01 05:32:27,15.08842635,0.0001446,53.2172,282.1503,92.4643,267.6515,8.3016e-05,1.034e-05,0.0,0 STARLINK-5408,1 54810U 22175BE  23305.23086948  .00001034  00000-0  83016-4 0  9998,2 54810  53.2172 282.1503 0001446  92.4643 267.6515 15.08842635 48291,6917.872,95.437,540.738,538.737,0.0
54810.0,STARLINK-5408,PAYLOAD,2023-11-01 08:43:13,15.08841295,0.0001451,53.2177,281.5561,89.5389,270.5769,3.8526e-05,3.25e-06,0.0,0 STARLINK-5408,1 54810U 22175BE  23305.36335133  .00000325  00000-0  38526-4 0  9993,2 54810  53.2177 281.5561 0001451  89.5389 270.5769 15.08841295 50471,6917.876,95.437,540.745,538.738,0.0
